{
  "type": "FeatureCollection",
  "features": [
    {
      "type": "Feature",
      "properties": {
        "norad_id": 30090,
        "name": "FENGYUN 1C DEB",
        "group": "fengyun-1c-debris",
        "lat": -24.16328593465258,
        "lon": 162.1153074623682,
        "alt_km": 832.9727191723086,
        "timestamp": "2025-12-10T21:43:22.361657+00:00",
        "meta_object_name": "FENGYUN 1C DEB",
        "meta_object_id": "1999-025QT",
        "meta_epoch": "2025-12-10T10:22:44.943168",
        "meta_mean_motion": 14.29022832,
        "meta_eccentricity": 0.00581563,
        "meta_inclination": 99.409,
        "meta_ra_of_asc_node": 157.3393,
        "meta_arg_of_pericenter": 118.3731,
        "meta_mean_anomaly": 307.4251,
        "meta_ephemeris_type": 0,
        "meta_classification_type": "U",
        "meta_norad_cat_id": 30090,
        "meta_element_set_no": 999,
        "meta_rev_at_epoch": 98237,
        "meta_bstar": 0.00049805565,
        "meta_mean_motion_dot": 1.234e-05,
        "meta_mean_motion_ddot": 0,
        "tle_line1": "1 30090U 99025QT  25344.43246462  .00001234  00000+0  49806-3 0  9995",
        "tle_line2": "2 30090  99.4090 157.3393 0058156 118.3731 307.4251 14.29022832982379"
      },
      "geometry": {
        "type": "Point",
        "coordinates": [
          162.1153074623682,
          -24.16328593465258
        ]
      }
    },
    {
      "type": "Feature",
      "properties": {
        "norad_id": 30092,
        "name": "FENGYUN 1C DEB",
        "group": "fengyun-1c-debris",
        "lat": -47.78332016235572,
        "lon": -25.88521236126274,
        "alt_km": 715.7195370342779,
        "timestamp": "2025-12-10T21:43:22.361668+00:00",
        "meta_object_name": "FENGYUN 1C DEB",
        "meta_object_id": "1999-025QV",
        "meta_epoch": "2025-12-10T10:47:04.852608",
        "meta_mean_motion": 14.39125638,
        "meta_eccentricity": 0.00825894,
        "meta_inclination": 98.9228,
        "meta_ra_of_asc_node": 163.6125,
        "meta_arg_of_pericenter": 257.252,
        "meta_mean_anomaly": 131.7884,
        "meta_ephemeris_type": 0,
        "meta_classification_type": "U",
        "meta_norad_cat_id": 30092,
        "meta_element_set_no": 999,
        "meta_rev_at_epoch": 98716,
        "meta_bstar": 0.00088571634,
        "meta_mean_motion_dot": 2.803e-05,
        "meta_mean_motion_ddot": 0,
        "tle_line1": "1 30092U 99025QV  25344.44936172  .00002803  00000+0  88572-3 0  9998",
        "tle_line2": "2 30092  98.9228 163.6125 0082589 257.2520 131.7884 14.39125638987168"
      },
      "geometry": {
        "type": "Point",
        "coordinates": [
          -25.88521236126274,
          -47.78332016235572
        ]
      }
    },
    {
      "type": "Feature",
      "properties": {
        "norad_id": 30093,
        "name": "FENGYUN 1C DEB",
        "group": "fengyun-1c-debris",
        "lat": 52.20259012682076,
        "lon": -152.21141222754585,
        "alt_km": 724.1502328249826,
        "timestamp": "2025-12-10T21:43:22.361678+00:00",
        "meta_object_name": "FENGYUN 1C DEB",
        "meta_object_id": "1999-025QW",
        "meta_epoch": "2025-12-10T14:57:45.859680",
        "meta_mean_motion": 14.43668927,
        "meta_eccentricity": 0.00703043,
        "meta_inclination": 98.8672,
        "meta_ra_of_asc_node": 219.1069,
        "meta_arg_of_pericenter": 343.8913,
        "meta_mean_anomaly": 45.4522,
        "meta_ephemeris_type": 0,
        "meta_classification_type": "U",
        "meta_norad_cat_id": 30093,
        "meta_element_set_no": 999,
        "meta_rev_at_epoch": 98773,
        "meta_bstar": 0.0013984019,
        "meta_mean_motion_dot": 4.845e-05,
        "meta_mean_motion_ddot": 0,
        "tle_line1": "1 30093U 99025QW  25344.62344745  .00004845  00000+0  13984-2 0  9990",
        "tle_line2": "2 30093  98.8672 219.1069 0070304 343.8913  45.4522 14.43668927987736"
      },
      "geometry": {
        "type": "Point",
        "coordinates": [
          -152.21141222754585,
          52.20259012682076
        ]
      }
    },
    {
      "type": "Feature",
      "properties": {
        "norad_id": 30095,
        "name": "FENGYUN 1C DEB",
        "group": "fengyun-1c-debris",
        "lat": -78.41673271687092,
        "lon": -41.83669242376623,
        "alt_km": 573.2072159612808,
        "timestamp": "2025-12-10T21:43:22.361688+00:00",
        "meta_object_name": "FENGYUN 1C DEB",
        "meta_object_id": "1999-025QY",
        "meta_epoch": "2025-12-10T09:07:17.571072",
        "meta_mean_motion": 14.81776455,
        "meta_eccentricity": 0.01665221,
        "meta_inclination": 99.2191,
        "meta_ra_of_asc_node": 265.1484,
        "meta_arg_of_pericenter": 339.8654,
        "meta_mean_anomaly": 19.6037,
        "meta_ephemeris_type": 0,
        "meta_classification_type": "U",
        "meta_norad_cat_id": 30095,
        "meta_element_set_no": 999,
        "meta_rev_at_epoch": 99300,
        "meta_bstar": 0.0036166427,
        "meta_mean_motion_dot": 0.0003642,
        "meta_mean_motion_ddot": 0,
        "tle_line1": "1 30095U 99025QY  25344.38006448  .00036420  00000+0  36166-2 0  9991",
        "tle_line2": "2 30095  99.2191 265.1484 0166522 339.8654  19.6037 14.81776455993005"
      },
      "geometry": {
        "type": "Point",
        "coordinates": [
          -41.83669242376623,
          -78.41673271687092
        ]
      }
    },
    {
      "type": "Feature",
      "properties": {
        "norad_id": 30096,
        "name": "FENGYUN 1C DEB",
        "group": "fengyun-1c-debris",
        "lat": -76.04116787145902,
        "lon": -156.35274186616184,
        "alt_km": 740.6681776282585,
        "timestamp": "2025-12-10T21:43:22.361699+00:00",
        "meta_object_name": "FENGYUN 1C DEB",
        "meta_object_id": "1999-025QZ",
        "meta_epoch": "2025-12-10T12:07:34.911552",
        "meta_mean_motion": 14.31684982,
        "meta_eccentricity": 0.0079053,
        "meta_inclination": 99.148,
        "meta_ra_of_asc_node": 63.6374,
        "meta_arg_of_pericenter": 238.9317,
        "meta_mean_anomaly": 120.4088,
        "meta_ephemeris_type": 0,
        "meta_classification_type": "U",
        "meta_norad_cat_id": 30096,
        "meta_element_set_no": 999,
        "meta_rev_at_epoch": 98514,
        "meta_bstar": 0.00051214637,
        "meta_mean_motion_dot": 1.364e-05,
        "meta_mean_motion_ddot": 0,
        "tle_line1": "1 30096U 99025QZ  25344.50526518  .00001364  00000+0  51215-3 0  9993",
        "tle_line2": "2 30096  99.1480  63.6374 0079053 238.9317 120.4088 14.31684982985143"
      },
      "geometry": {
        "type": "Point",
        "coordinates": [
          -156.35274186616184,
          -76.04116787145902
        ]
      }
    },
    {
      "type": "Feature",
      "properties": {
        "norad_id": 30099,
        "name": "FENGYUN 1C DEB",
        "group": "fengyun-1c-debris",
        "lat": 1.655461670675111,
        "lon": -122.49352577694091,
        "alt_km": 794.2598221392582,
        "timestamp": "2025-12-10T21:43:22.361709+00:00",
        "meta_object_name": "FENGYUN 1C DEB",
        "meta_object_id": "1999-025RC",
        "meta_epoch": "2025-12-10T04:10:53.211936",
        "meta_mean_motion": 14.25930779,
        "meta_eccentricity": 0.00610179,
        "meta_inclination": 98.5409,
        "meta_ra_of_asc_node": 56.5453,
        "meta_arg_of_pericenter": 252.3151,
        "meta_mean_anomaly": 136.7616,
        "meta_ephemeris_type": 0,
        "meta_classification_type": "U",
        "meta_norad_cat_id": 30099,
        "meta_element_set_no": 999,
        "meta_rev_at_epoch": 98153,
        "meta_bstar": 0.00043798134,
        "meta_mean_motion_dot": 1.021e-05,
        "meta_mean_motion_ddot": 0,
        "tle_line1": "1 30099U 99025RC  25344.17422699  .00001021  00000+0  43798-3 0  9991",
        "tle_line2": "2 30099  98.5409  56.5453 0061017 252.3151 136.7616 14.25930779981533"
      },
      "geometry": {
        "type": "Point",
        "coordinates": [
          -122.49352577694091,
          1.655461670675111
        ]
      }
    },
    {
      "type": "Feature",
      "properties": {
        "norad_id": 30102,
        "name": "FENGYUN 1C DEB",
        "group": "fengyun-1c-debris",
        "lat": 26.976946212220312,
        "lon": -11.530259693729365,
        "alt_km": 722.1077973032352,
        "timestamp": "2025-12-10T21:43:22.361720+00:00",
        "meta_object_name": "FENGYUN 1C DEB",
        "meta_object_id": "1999-025RF",
        "meta_epoch": "2025-12-10T12:10:41.710944",
        "meta_mean_motion": 14.22124671,
        "meta_eccentricity": 0.01418209,
        "meta_inclination": 98.3792,
        "meta_ra_of_asc_node": 352.3943,
        "meta_arg_of_pericenter": 6.7476,
        "meta_mean_anomaly": 145.161,
        "meta_ephemeris_type": 0,
        "meta_classification_type": "U",
        "meta_norad_cat_id": 30102,
        "meta_element_set_no": 999,
        "meta_rev_at_epoch": 97926,
        "meta_bstar": 0.00052643136,
        "meta_mean_motion_dot": 1.25e-05,
        "meta_mean_motion_ddot": 0,
        "tle_line1": "1 30102U 99025RF  25344.50742721  .00001250  00000+0  52643-3 0  9997",
        "tle_line2": "2 30102  98.3792 352.3943 0141820   6.7476 145.1610 14.22124671979262"
      },
      "geometry": {
        "type": "Point",
        "coordinates": [
          -11.530259693729365,
          26.976946212220312
        ]
      }
    }
  ]
}